[
  {
    "COMMENT": "GENERATED VIA SPACETRACK.ORG API",
    "ORIGINATOR": "18 SPCS",
    "NORAD_CAT_ID": "54754",
    "OBJECT_NAME": "SWOT",
    "OBJECT_TYPE": "PAYLOAD",
    "CLASSIFICATION_TYPE": "U",
    "INTLDES": "22173A",
    "EPOCH": "2023-07-16 19:40:24",
    "EPOCH_MICROSECONDS": "368736",
    "MEAN_MOTION": "14.00630715",
    "ECCENTRICITY": "0.0000466",
    "INCLINATION": "77.61",
    "RA_OF_ASC_NODE": "34.7945",
    "ARG_OF_PERICENTER": "156.278",
    "MEAN_ANOMALY": "203.8393",
    "EPHEMERIS_TYPE": "0",
    "ELEMENT_SET_NO": "999",
    "REV_AT_EPOCH": "2991",
    "BSTAR": "0.000054434",
    "MEAN_MOTION_DOT": "0.00000078",
    "MEAN_MOTION_DDOT": "0",
    "FILE": "3959740",
    "TLE_LINE0": "0 SWOT",
    "TLE_LINE1": "1 54754U 22173A   23197.81972649  .00000078  00000-0  54434-4 0  9997",
    "TLE_LINE2": "2 54754  77.6100  34.7945 0000466 156.2780 203.8393 14.00630715 29911",
    "OBJECT_ID": "2022-173A",
    "OBJECT_NUMBER": "54754",
    "SEMIMAJOR_AXIS": "7269.749",
    "PERIOD": "102.811",
    "APOGEE": "891.953",
    "PERIGEE": "891.275",
    "DECAYED": "0"
  },
  {
    "COMMENT": "GENERATED VIA SPACETRACK.ORG API",
    "ORIGINATOR": "18 SPCS",
    "NORAD_CAT_ID": "54754",
    "OBJECT_NAME": "SWOT",
    "OBJECT_TYPE": "PAYLOAD",
    "CLASSIFICATION_TYPE": "U",
    "INTLDES": "22173A",
    "EPOCH": "2023-07-18 02:32:02",
    "EPOCH_MICROSECONDS": "303808",
    "MEAN_MOTION": "14.00124975",
    "ECCENTRICITY": "0.0000488",
    "INCLINATION": "77.6099",
    "RA_OF_ASC_NODE": "33.0572",
    "ARG_OF_PERICENTER": "149.2197",
    "MEAN_ANOMALY": "210.8983",
    "EPHEMERIS_TYPE": "0",
    "ELEMENT_SET_NO": "999",
    "REV_AT_EPOCH": "3009",
    "BSTAR": "0.000028386",
    "MEAN_MOTION_DOT": "0.00000039",
    "MEAN_MOTION_DDOT": "0",
    "FILE": "3960903",
    "TLE_LINE0": "0 SWOT",
    "TLE_LINE1": "1 54754U 22173A   23199.10558222  .00000039  00000-0  28386-4 0  9992",
    "TLE_LINE2": "2 54754  77.6099  33.0572 0000488 149.2197 210.8983 14.00124975 30094",
    "OBJECT_ID": "2022-173A",
    "OBJECT_NUMBER": "54754",
    "SEMIMAJOR_AXIS": "7271.499",
    "PERIOD": "102.848",
    "APOGEE": "893.719",
    "PERIGEE": "893.010",
    "DECAYED": "0"
  },
  {
    "COMMENT": "GENERATED VIA SPACETRACK.ORG API",
    "ORIGINATOR": "18 SPCS",
    "NORAD_CAT_ID": "54754",
    "OBJECT_NAME": "SWOT",
    "OBJECT_TYPE": "PAYLOAD",
    "CLASSIFICATION_TYPE": "U",
    "INTLDES": "22173A",
    "EPOCH": "2023-07-19 02:32:36",
    "EPOCH_MICROSECONDS": "130272",
    "MEAN_MOTION": "14.00125413",
    "ECCENTRICITY": "0.0000499",
    "INCLINATION": "77.61",
    "RA_OF_ASC_NODE": "31.707",
    "ARG_OF_PERICENTER": "148.9432",
    "MEAN_ANOMALY": "211.1749",
    "EPHEMERIS_TYPE": "0",
    "ELEMENT_SET_NO": "999",
    "REV_AT_EPOCH": "3023",
    "BSTAR": "-0.000022686",
    "MEAN_MOTION_DOT": "-0.00000036",
    "MEAN_MOTION_DDOT": "0",
    "FILE": "3961660",
    "TLE_LINE0": "0 SWOT",
    "TLE_LINE1": "1 54754U 22173A   23200.10597373 -.00000036  00000-0 -22686-4 0  9991",
    "TLE_LINE2": "2 54754  77.6100  31.7070 0000499 148.9432 211.1749 14.00125413 30233",
    "OBJECT_ID": "2022-173A",
    "OBJECT_NUMBER": "54754",
    "SEMIMAJOR_AXIS": "7271.498",
    "PERIOD": "102.848",
    "APOGEE": "893.726",
    "PERIGEE": "893.000",
    "DECAYED": "0"
  },
  {
    "COMMENT": "GENERATED VIA SPACETRACK.ORG API",
    "ORIGINATOR": "18 SPCS",
    "NORAD_CAT_ID": "54754",
    "OBJECT_NAME": "SWOT",
    "OBJECT_TYPE": "PAYLOAD",
    "CLASSIFICATION_TYPE": "U",
    "INTLDES": "22173A",
    "EPOCH": "2023-07-20 17:59:14",
    "EPOCH_MICROSECONDS": "578656",
    "MEAN_MOTION": "14.00125656",
    "ECCENTRICITY": "0.0000518",
    "INCLINATION": "77.6101",
    "RA_OF_ASC_NODE": "29.4883",
    "ARG_OF_PERICENTER": "145.1146",
    "MEAN_ANOMALY": "215.004",
    "EPHEMERIS_TYPE": "0",
    "ELEMENT_SET_NO": "999",
    "REV_AT_EPOCH": "3046",
    "BSTAR": "0.000023171",
    "MEAN_MOTION_DOT": "0.00000032",
    "MEAN_MOTION_DDOT": "0",
    "FILE": "3962845",
    "TLE_LINE0": "0 SWOT",
    "TLE_LINE1": "1 54754U 22173A   23201.74947429  .00000032  00000-0  23171-4 0  9997",
    "TLE_LINE2": "2 54754  77.6101  29.4883 0000518 145.1146 215.0040 14.00125656 30464",
    "OBJECT_ID": "2022-173A",
    "OBJECT_NUMBER": "54754",
    "SEMIMAJOR_AXIS": "7271.497",
    "PERIOD": "102.848",
    "APOGEE": "893.739",
    "PERIGEE": "892.985",
    "DECAYED": "0"
  },
  {
    "COMMENT": "GENERATED VIA SPACETRACK.ORG API",
    "ORIGINATOR": "18 SPCS",
    "NORAD_CAT_ID": "54754",
    "OBJECT_NAME": "SWOT",
    "OBJECT_TYPE": "PAYLOAD",
    "CLASSIFICATION_TYPE": "U",
    "INTLDES": "22173A",
    "EPOCH": "2023-07-24 12:52:39",
    "EPOCH_MICROSECONDS": "667008",
    "MEAN_MOTION": "14.00167456",
    "ECCENTRICITY": "0.0000387",
    "INCLINATION": "77.6103",
    "RA_OF_ASC_NODE": "24.3756",
    "ARG_OF_PERICENTER": "139.5799",
    "MEAN_ANOMALY": "220.5382",
    "EPHEMERIS_TYPE": "0",
    "ELEMENT_SET_NO": "999",
    "REV_AT_EPOCH": "3099",
    "BSTAR": "0.00009044",
    "MEAN_MOTION_DOT": "0.00000131",
    "MEAN_MOTION_DDOT": "0",
    "FILE": "3963756",
    "TLE_LINE0": "0 SWOT",
    "TLE_LINE1": "1 54754U 22173A   23205.53657022  .00000131  00000-0  90440-4 0  9998",
    "TLE_LINE2": "2 54754  77.6103  24.3756 0000387 139.5799 220.5382 14.00167456 30996",
    "OBJECT_ID": "2022-173A",
    "OBJECT_NUMBER": "54754",
    "SEMIMAJOR_AXIS": "7271.352",
    "PERIOD": "102.845",
    "APOGEE": "893.499",
    "PERIGEE": "892.936",
    "DECAYED": "0"
  },
  {
    "COMMENT": "GENERATED VIA SPACETRACK.ORG API",
    "ORIGINATOR": "18 SPCS",
    "NORAD_CAT_ID": "54754",
    "OBJECT_NAME": "SWOT",
    "OBJECT_TYPE": "PAYLOAD",
    "CLASSIFICATION_TYPE": "U",
    "INTLDES": "22173A",
    "EPOCH": "2023-07-25 12:53:10",
    "EPOCH_MICROSECONDS": "904928",
    "MEAN_MOTION": "14.00167627",
    "ECCENTRICITY": "0.0000386",
    "INCLINATION": "77.6103",
    "RA_OF_ASC_NODE": "23.025",
    "ARG_OF_PERICENTER": "135.6166",
    "MEAN_ANOMALY": "224.5017",
    "EPHEMERIS_TYPE": "0",
    "ELEMENT_SET_NO": "999",
    "REV_AT_EPOCH": "3113",
    "BSTAR": "0.000083022",
    "MEAN_MOTION_DOT": "0.0000012",
    "MEAN_MOTION_DDOT": "0",
    "FILE": "3963759",
    "TLE_LINE0": "0 SWOT",
    "TLE_LINE1": "1 54754U 22173A   23206.53693177  .00000120  00000-0  83022-4 0  9996",
    "TLE_LINE2": "2 54754  77.6103  23.0250 0000386 135.6166 224.5017 14.00167627 31131",
    "OBJECT_ID": "2022-173A",
    "OBJECT_NUMBER": "54754",
    "SEMIMAJOR_AXIS": "7271.352",
    "PERIOD": "102.845",
    "APOGEE": "893.497",
    "PERIGEE": "892.936",
    "DECAYED": "0"
  },
  {
    "COMMENT": "GENERATED VIA SPACETRACK.ORG API",
    "ORIGINATOR": "18 SPCS",
    "NORAD_CAT_ID": "54754",
    "OBJECT_NAME": "SWOT",
    "OBJECT_TYPE": "PAYLOAD",
    "CLASSIFICATION_TYPE": "U",
    "INTLDES": "22173A",
    "EPOCH": "2023-07-26 12:53:42",
    "EPOCH_MICROSECONDS": "116928",
    "MEAN_MOTION": "14.00167803",
    "ECCENTRICITY": "0.000038",
    "INCLINATION": "77.6104",
    "RA_OF_ASC_NODE": "21.6744",
    "ARG_OF_PERICENTER": "133.725",
    "MEAN_ANOMALY": "226.3933",
    "EPHEMERIS_TYPE": "0",
    "ELEMENT_SET_NO": "999",
    "REV_AT_EPOCH": "3127",
    "BSTAR": "0.000064196",
    "MEAN_MOTION_DOT": "0.00000092",
    "MEAN_MOTION_DDOT": "0",
    "FILE": "3963761",
    "TLE_LINE0": "0 SWOT",
    "TLE_LINE1": "1 54754U 22173A   23207.53729302  .00000092  00000-0  64196-4 0  9996",
    "TLE_LINE2": "2 54754  77.6104  21.6744 0000380 133.7250 226.3933 14.00167803 31279",
    "OBJECT_ID": "2022-173A",
    "OBJECT_NUMBER": "54754",
    "SEMIMAJOR_AXIS": "7271.351",
    "PERIOD": "102.845",
    "APOGEE": "893.492",
    "PERIGEE": "892.940",
    "DECAYED": "0"
  },
  {
    "COMMENT": "GENERATED VIA SPACETRACK.ORG API",
    "ORIGINATOR": "18 SPCS",
    "NORAD_CAT_ID": "54754",
    "OBJECT_NAME": "SWOT",
    "OBJECT_TYPE": "PAYLOAD",
    "CLASSIFICATION_TYPE": "U",
    "INTLDES": "22173A",
    "EPOCH": "2023-07-26 21:28:10",
    "EPOCH_MICROSECONDS": "403904",
    "MEAN_MOTION": "14.00167861",
    "ECCENTRICITY": "0.0000371",
    "INCLINATION": "77.6104",
    "RA_OF_ASC_NODE": "21.1921",
    "ARG_OF_PERICENTER": "133.7343",
    "MEAN_ANOMALY": "226.3839",
    "EPHEMERIS_TYPE": "0",
    "ELEMENT_SET_NO": "999",
    "REV_AT_EPOCH": "3132",
    "BSTAR": "0.000058491",
    "MEAN_MOTION_DOT": "0.00000084",
    "MEAN_MOTION_DDOT": "0",
    "FILE": "3963989",
    "TLE_LINE0": "0 SWOT",
    "TLE_LINE1": "1 54754U 22173A   23207.89456486  .00000084  00000-0  58491-4 0  9997",
    "TLE_LINE2": "2 54754  77.6104  21.1921 0000371 133.7343 226.3839 14.00167861 31329",
    "OBJECT_ID": "2022-173A",
    "OBJECT_NUMBER": "54754",
    "SEMIMAJOR_AXIS": "7271.351",
    "PERIOD": "102.845",
    "APOGEE": "893.486",
    "PERIGEE": "892.946",
    "DECAYED": "0"
  },
  {
    "COMMENT": "GENERATED VIA SPACETRACK.ORG API",
    "ORIGINATOR": "18 SPCS",
    "NORAD_CAT_ID": "54754",
    "OBJECT_NAME": "SWOT",
    "OBJECT_TYPE": "PAYLOAD",
    "CLASSIFICATION_TYPE": "U",
    "INTLDES": "22173A",
    "EPOCH": "2023-07-27 11:11:19",
    "EPOCH_MICROSECONDS": "659264",
    "MEAN_MOTION": "14.00167964",
    "ECCENTRICITY": "0.0000367",
    "INCLINATION": "77.6105",
    "RA_OF_ASC_NODE": "20.4203",
    "ARG_OF_PERICENTER": "132.1231",
    "MEAN_ANOMALY": "227.9952",
    "EPHEMERIS_TYPE": "0",
    "ELEMENT_SET_NO": "999",
    "REV_AT_EPOCH": "3140",
    "BSTAR": "0.000046743",
    "MEAN_MOTION_DOT": "0.00000066",
    "MEAN_MOTION_DDOT": "0",
    "FILE": "3964586",
    "TLE_LINE0": "0 SWOT",
    "TLE_LINE1": "1 54754U 22173A   23208.46619976  .00000066  00000-0  46743-4 0  9993",
    "TLE_LINE2": "2 54754  77.6105  20.4203 0000367 132.1231 227.9952 14.00167964 31405",
    "OBJECT_ID": "2022-173A",
    "OBJECT_NUMBER": "54754",
    "SEMIMAJOR_AXIS": "7271.351",
    "PERIOD": "102.845",
    "APOGEE": "893.482",
    "PERIGEE": "892.949",
    "DECAYED": "0"
  }
]